[{"OBJECT_NAME":"STARLINK-6070","OBJECT_ID":"2023-078AM","EPOCH":"2026-03-09T22:00:01.999584","MEAN_MOTION":15.33868458,"ECCENTRICITY":0.00035577,"INCLINATION":70.001,"RA_OF_ASC_NODE":321.9382,"ARG_OF_PERICENTER":287.8141,"MEAN_ANOMALY":182.2971,"EPHEMERIS_TYPE":0,"CLASSIFICATION_TYPE":"U","NORAD_CAT_ID":56802,"ELEMENT_SET_NO":999,"REV_AT_EPOCH":575,"BSTAR":0.031099255,"MEAN_MOTION_DOT":0.0111992,"MEAN_MOTION_DDOT":0},{"OBJECT_NAME":"ENSHI XIDA SHANQUAN","OBJECT_ID":"2025-160A","EPOCH":"2026-03-09T22:31:41.412864","MEAN_MOTION":15.35264812,"ECCENTRICITY":0.00086596,"INCLINATION":97.3677,"RA_OF_ASC_NODE":146.4003,"ARG_OF_PERICENTER":192.7492,"MEAN_ANOMALY":167.3534,"EPHEMERIS_TYPE":0,"CLASSIFICATION_TYPE":"U","NORAD_CAT_ID":64962,"ELEMENT_SET_NO":999,"REV_AT_EPOCH":3415,"BSTAR":0.0011064868,"MEAN_MOTION_DOT":0.00037992,"MEAN_MOTION_DDOT":0}]
